title;phones;city;address;instagram;whatsapp;e-mails;url
PALMA;+7‒707‒258‒03‒66,+7‒775‒771‒88‒86;almaty;проспект Рыскулова, 103/4;https://www.instagram.com/palma.damhana/;https://api.whatsapp.com/send/?phone=77072580366&text=%D0%97%D0%B4%D1%80%D0%B0%D0%B2%D1%81%D1%82%D0%B2%D1%83%D0%B9%D1%82%D0%B5%21%0A%0A%D0%9F%D0%B8%D1%88%D1%83+%D0%B8%D0%B7+%D0%BF%D1%80%D0%B8%D0%BB%D0%BE%D0%B6%D0%B5%D0%BD%D0%B8%D1%8F+2%D0%93%D0%98%D0%A1.%0A%0A&type=phone_number&app_absent=0;www.palma1.kz,palma1.kz@gmail.com;https://2gis.kz/almaty/search/%D0%BA%D0%B0%D1%84%D0%B5/firm/70000001041266678/76.869944%2C43.26688
БАДЬЯН;+7‒701‒016‒21‒11;almaty;проспект Абылай хана, 46;https://www.instagram.com/badyankz/;https://api.whatsapp.com/send/?phone=77010162111&text=%D0%97%D0%B4%D1%80%D0%B0%D0%B2%D1%81%D1%82%D0%B2%D1%83%D0%B9%D1%82%D0%B5%21%0A%0A%D0%9F%D0%B8%D1%88%D1%83+%D0%B8%D0%B7+%D0%BF%D1%80%D0%B8%D0%BB%D0%BE%D0%B6%D0%B5%D0%BD%D0%B8%D1%8F+2%D0%93%D0%98%D0%A1.%0A%0A&type=phone_number&app_absent=0;badyankz@inbox.ru,badyankz@gmail.com;https://2gis.kz/almaty/search/%D0%BA%D0%B0%D1%84%D0%B5/firm/70000001036681428/76.94056%2C43.264074
HOGO ХОГО;+7‒707‒382‒78‒17,+7‒707‒988‒87‒16;almaty;улица Спортивная, 3;;;;https://2gis.kz/almaty/search/%D0%BA%D0%B0%D1%84%D0%B5/firm/70000001046339155/76.841868%2C43.200823
WUQQA LOUNGE;+7‒777‒848‒84‒48;almaty;улица Толе би, 65;https://www.instagram.com/wuqqa_lounge/;https://api.whatsapp.com/send/?phone=77778488448&text=%D0%97%D0%B4%D1%80%D0%B0%D0%B2%D1%81%D1%82%D0%B2%D1%83%D0%B9%D1%82%D0%B5%21%0A%0A%D0%9F%D0%B8%D1%88%D1%83+%D0%B8%D0%B7+%D0%BF%D1%80%D0%B8%D0%BB%D0%BE%D0%B6%D0%B5%D0%BD%D0%B8%D1%8F+2%D0%93%D0%98%D0%A1.%0A%0A&type=phone_number&app_absent=0;wuqqa@bk.ru;https://2gis.kz/almaty/search/%D0%BA%D0%B0%D1%84%D0%B5/firm/70000001065275708/76.939263%2C43.254761
LIFE GRILL CAFE;+7 (727) 390‒12‒12,+7‒777‒867‒22‒33;almaty;улица Жазылбека, 20/2;https://www.instagram.com/life_grill_cafe/;https://api.whatsapp.com/send/?phone=77778672233&text=%D0%97%D0%B4%D1%80%D0%B0%D0%B2%D1%81%D1%82%D0%B2%D1%83%D0%B9%D1%82%D0%B5%21%0A%0A%D0%9F%D0%B8%D1%88%D1%83+%D0%B8%D0%B7+%D0%BF%D1%80%D0%B8%D0%BB%D0%BE%D0%B6%D0%B5%D0%BD%D0%B8%D1%8F+2%D0%93%D0%98%D0%A1.%0A%0A&type=phone_number&app_absent=0;lyansvetlana@mail.ru;https://2gis.kz/almaty/search/%D0%BA%D0%B0%D1%84%D0%B5/firm/70000001047201716/76.867057%2C43.202775
ЧАЧАПУРИ;+7 (727) 327‒57‒75,+7‒700‒555‒58‒31;almaty;улица Кастеева, 15;https://www.instagram.com/chachapuri_almaty/;https://api.whatsapp.com/send/?phone=77005555831&text=%D0%97%D0%B4%D1%80%D0%B0%D0%B2%D1%81%D1%82%D0%B2%D1%83%D0%B9%D1%82%D0%B5%21%0A%0A%D0%9F%D0%B8%D1%88%D1%83+%D0%B8%D0%B7+%D0%BF%D1%80%D0%B8%D0%BB%D0%BE%D0%B6%D0%B5%D0%BD%D0%B8%D1%8F+2%D0%93%D0%98%D0%A1.%0A%0A&type=phone_number&app_absent=0;titobrasko@gmail.com;https://2gis.kz/almaty/search/%D0%BA%D0%B0%D1%84%D0%B5/firm/70000001032291570/76.967764%2C43.254604
МАМА GIVI;+7‒747‒214‒88‒88;almaty;улица Яблочная, 19;https://www.instagram.com/mama_givi_almaty/;https://api.whatsapp.com/send/?phone=77472148888&text=%D0%97%D0%B4%D1%80%D0%B0%D0%B2%D1%81%D1%82%D0%B2%D1%83%D0%B9%D1%82%D0%B5%21%0A%0A%D0%9F%D0%B8%D1%88%D1%83+%D0%B8%D0%B7+%D0%BF%D1%80%D0%B8%D0%BB%D0%BE%D0%B6%D0%B5%D0%BD%D0%B8%D1%8F+2%D0%93%D0%98%D0%A1.%0A%0A&type=phone_number&app_absent=0;gulnarau@yandex.ru;https://2gis.kz/almaty/search/%D0%BA%D0%B0%D1%84%D0%B5/firm/70000001057553832/76.971127%2C43.248829
ТАВЕРНА НА УГЛЯХ;+7‒771‒593‒48‒84,+7‒747‒769‒38‒38;almaty;улица Розыбакиева, 109;https://www.instagram.com/tavernauglyah/;https://api.whatsapp.com/send/?phone=77715934884&text=%D0%97%D0%B4%D1%80%D0%B0%D0%B2%D1%81%D1%82%D0%B2%D1%83%D0%B9%D1%82%D0%B5%21%0A%0A%D0%9F%D0%B8%D1%88%D1%83+%D0%B8%D0%B7+%D0%BF%D1%80%D0%B8%D0%BB%D0%BE%D0%B6%D0%B5%D0%BD%D0%B8%D1%8F+2%D0%93%D0%98%D0%A1.%0A%0A&type=phone_number&app_absent=0;tvn2018@inbox.ru;https://2gis.kz/almaty/search/%D0%BA%D0%B0%D1%84%D0%B5/firm/70000001032307976/76.890754%2C43.229533
ДАДИАНИ;+7‒771‒487‒13‒13,+7‒771‒333‒38‒11;almaty;улица Кабанбай батыра, 37;https://www.instagram.com/dadiani_almaty/;https://api.whatsapp.com/send/?phone=77714871313&text=%D0%97%D0%B4%D1%80%D0%B0%D0%B2%D1%81%D1%82%D0%B2%D1%83%D0%B9%D1%82%D0%B5%21%0A%0A%D0%9F%D0%B8%D1%88%D1%83+%D0%B8%D0%B7+%D0%BF%D1%80%D0%B8%D0%BB%D0%BE%D0%B6%D0%B5%D0%BD%D0%B8%D1%8F+2%D0%93%D0%98%D0%A1.%0A%0A&type=phone_number&app_absent=0;gulnarau@yandex.ru;https://2gis.kz/almaty/search/%D0%BA%D0%B0%D1%84%D0%B5/firm/70000001030286103/76.963332%2C43.251245
ЛЕТНИЙ ДВОРИК;+7‒747‒391‒01‒97,+7‒747‒331‒34‒51;almaty;улица Розыбакиева, 31/1Б;https://www.instagram.com/letniydvorik.kz/;https://api.whatsapp.com/send/?phone=77473313454&text=%D0%97%D0%B4%D1%80%D0%B0%D0%B2%D1%81%D1%82%D0%B2%D1%83%D0%B9%D1%82%D0%B5%21%0A%0A%D0%9F%D0%B8%D1%88%D1%83+%D0%B8%D0%B7+%D0%BF%D1%80%D0%B8%D0%BB%D0%BE%D0%B6%D0%B5%D0%BD%D0%B8%D1%8F+2%D0%93%D0%98%D0%A1.%0A%0A&type=phone_number&app_absent=0;lyansvetlana@mail.ru;https://2gis.kz/almaty/search/%D0%BA%D0%B0%D1%84%D0%B5/firm/70000001033632023/76.888956%2C43.242285
КУЛЬДЖА ХОГО;+7‒700‒785‒00‒55,+7‒708‒904‒55‒55;almaty;улица Гоголя, 8;https://www.instagram.com/kuldja_hogo_almaty/;https://api.whatsapp.com/send/?phone=77007850055&text=%D0%97%D0%B4%D1%80%D0%B0%D0%B2%D1%81%D1%82%D0%B2%D1%83%D0%B9%D1%82%D0%B5%21%0A%0A%D0%9F%D0%B8%D1%88%D1%83+%D0%B8%D0%B7+%D0%BF%D1%80%D0%B8%D0%BB%D0%BE%D0%B6%D0%B5%D0%BD%D0%B8%D1%8F+2%D0%93%D0%98%D0%A1.%0A%0A&type=phone_number&app_absent=0;;https://2gis.kz/almaty/search/%D0%BA%D0%B0%D1%84%D0%B5/firm/70000001055863386/76.962785%2C43.261029
УРУМЧИ ХОГО;+7‒747‒883‒43‒98;almaty;улица Розыбакиева, 234;https://www.instagram.com/urumchi.hogo.almaty/;https://api.whatsapp.com/send/?phone=77478834398&text=%D0%97%D0%B4%D1%80%D0%B0%D0%B2%D1%81%D1%82%D0%B2%D1%83%D0%B9%D1%82%D0%B5%21%0A%0A%D0%9F%D0%B8%D1%88%D1%83+%D0%B8%D0%B7+%D0%BF%D1%80%D0%B8%D0%BB%D0%BE%D0%B6%D0%B5%D0%BD%D0%B8%D1%8F+2%D0%93%D0%98%D0%A1.%0A%0A&type=phone_number&app_absent=0;;https://2gis.kz/almaty/search/%D0%BA%D0%B0%D1%84%D0%B5/firm/70000001062569479/76.892456%2C43.220787
TOMYUMBAR;+7‒707‒001‒50‒50;almaty;проспект Сейфуллина, 498;;;;https://2gis.kz/almaty/search/%D0%BA%D0%B0%D1%84%D0%B5/page/2/firm/70000001058785497/76.933414%2C43.251769
ЭХО;+7‒778‒479‒30‒30;almaty;улица Наурызбай батыра, 85;;;;https://2gis.kz/almaty/search/%D0%BA%D0%B0%D1%84%D0%B5/page/2/firm/70000001053091278/76.93673%2C43.248943
КУЛЬДЖА ХОГО;+7‒700‒500‒50‒08;almaty;улица Розыбакиева, 33Б;https://www.instagram.com/kuldja_hogo.kz/;https://api.whatsapp.com/send/?phone=77005005008&text=%D0%97%D0%B4%D1%80%D0%B0%D0%B2%D1%81%D1%82%D0%B2%D1%83%D0%B9%D1%82%D0%B5%21%0A%0A%D0%9F%D0%B8%D1%88%D1%83+%D0%B8%D0%B7+%D0%BF%D1%80%D0%B8%D0%BB%D0%BE%D0%B6%D0%B5%D0%BD%D0%B8%D1%8F+2%D0%93%D0%98%D0%A1.%0A%0A&type=phone_number&app_absent=0;;https://2gis.kz/almaty/search/%D0%BA%D0%B0%D1%84%D0%B5/page/2/firm/70000001056395205/76.889131%2C43.241375
MYATA LOUNGE;+7‒701‒777‒17‒52;almaty;улица Ауэзова, 14а;https://www.instagram.com/myata_vyshka/;;;https://2gis.kz/almaty/search/%D0%BA%D0%B0%D1%84%D0%B5/page/2/firm/70000001041444514/76.902611%2C43.253558
DEL CAPPUCCINO;+7‒700‒336‒61‒41;almaty;улица Толе би, 64;https://www.instagram.com/del.cappuccino/;https://api.whatsapp.com/send/?phone=77003366141&text=%D0%97%D0%B4%D1%80%D0%B0%D0%B2%D1%81%D1%82%D0%B2%D1%83%D0%B9%D1%82%D0%B5%21%0A%0A%D0%9F%D0%B8%D1%88%D1%83+%D0%B8%D0%B7+%D0%BF%D1%80%D0%B8%D0%BB%D0%BE%D0%B6%D0%B5%D0%BD%D0%B8%D1%8F+2%D0%93%D0%98%D0%A1.%0A%0A&type=phone_number&app_absent=0;koshkarov@gmail.com;https://2gis.kz/almaty/search/%D0%BA%D0%B0%D1%84%D0%B5/page/2/firm/70000001054834712/76.945836%2C43.254726
ШАШЛЫК МАШЛЫК;+7‒702‒222‒24‒88,+7‒702‒222‒29‒20;almaty;улица Богенбай батыра, 61;https://www.instagram.com/shashlik_mashlik_almaty/;https://api.whatsapp.com/send/?phone=77022222488&text=%D0%97%D0%B4%D1%80%D0%B0%D0%B2%D1%81%D1%82%D0%B2%D1%83%D0%B9%D1%82%D0%B5%21%0A%0A%D0%9F%D0%B8%D1%88%D1%83+%D0%B8%D0%B7+%D0%BF%D1%80%D0%B8%D0%BB%D0%BE%D0%B6%D0%B5%D0%BD%D0%B8%D1%8F+2%D0%93%D0%98%D0%A1.%0A%0A&type=phone_number&app_absent=0;www.tiktok.com,qost70@mail.ru;https://2gis.kz/almaty/search/%D0%BA%D0%B0%D1%84%D0%B5/page/2/firm/70000001062363701/76.962934%2C43.25451
KIM CHI;+7‒775‒888‒00‒70;almaty;микрорайон Орбита 2, 6;https://www.instagram.com/kimchi.almaty/;https://api.whatsapp.com/send/?phone=77758880070&text=%D0%97%D0%B4%D1%80%D0%B0%D0%B2%D1%81%D1%82%D0%B2%D1%83%D0%B9%D1%82%D0%B5%21%0A%0A%D0%9F%D0%B8%D1%88%D1%83+%D0%B8%D0%B7+%D0%BF%D1%80%D0%B8%D0%BB%D0%BE%D0%B6%D0%B5%D0%BD%D0%B8%D1%8F+2%D0%93%D0%98%D0%A1.%0A%0A&type=phone_number&app_absent=0;kim_chi_20@mail.ru;https://2gis.kz/almaty/search/%D0%BA%D0%B0%D1%84%D0%B5/page/2/firm/70000001038275580/76.887139%2C43.197157
VILKA;+7‒707‒339‒40‒49,+7‒707‒771‒12‒82;almaty;улица Казыбек би, 105;https://www.instagram.com/vilka.cafe/;;www.vilka.kz;https://2gis.kz/almaty/search/%D0%BA%D0%B0%D1%84%D0%B5/page/2/firm/70000001026518282/76.934199%2C43.255998
DAMI;+7‒705‒101‒53‒53;almaty;улица Розыбакиева, 153а;https://www.instagram.com/dami_cafealmaty/;https://api.whatsapp.com/send/?phone=77051015353&text=%D0%97%D0%B4%D1%80%D0%B0%D0%B2%D1%81%D1%82%D0%B2%D1%83%D0%B9%D1%82%D0%B5%21%0A%0A%D0%9F%D0%B8%D1%88%D1%83+%D0%B8%D0%B7+%D0%BF%D1%80%D0%B8%D0%BB%D0%BE%D0%B6%D0%B5%D0%BD%D0%B8%D1%8F+2%D0%93%D0%98%D0%A1.%0A%0A&type=phone_number&app_absent=0;;https://2gis.kz/almaty/search/%D0%BA%D0%B0%D1%84%D0%B5/page/2/firm/70000001057795375/76.891746%2C43.220577
DOSE;+7‒771‒444‒58‒28;almaty;улица Толе би, 50-54;https://www.instagram.com/dose_almaty/;https://api.whatsapp.com/send/?phone= 77714445828&text=%D0%97%D0%B4%D1%80%D0%B0%D0%B2%D1%81%D1%82%D0%B2%D1%83%D0%B9%D1%82%D0%B5%21%0A%0A%D0%9F%D0%B8%D1%88%D1%83+%D0%B8%D0%B7+%D0%BF%D1%80%D0%B8%D0%BB%D0%BE%D0%B6%D0%B5%D0%BD%D0%B8%D1%8F+2%D0%93%D0%98%D0%A1.%0A%0A&type=phone_number&app_absent=0;;https://2gis.kz/almaty/search/%D0%BA%D0%B0%D1%84%D0%B5/page/2/firm/70000001063851794/76.94989%2C43.255005
AVENUE;+7‒700‒979‒79‒00;almaty;улица Мынбаева, 53;https://www.instagram.com/avenue_almaty/;https://api.whatsapp.com/send/?phone=77019797921&text=%D0%97%D0%B4%D1%80%D0%B0%D0%B2%D1%81%D1%82%D0%B2%D1%83%D0%B9%D1%82%D0%B5%21%0A%0A%D0%9F%D0%B8%D1%88%D1%83+%D0%B8%D0%B7+%D0%BF%D1%80%D0%B8%D0%BB%D0%BE%D0%B6%D0%B5%D0%BD%D0%B8%D1%8F+2%D0%93%D0%98%D0%A1.%0A%0A&type=phone_number&app_absent=0;avenue_club@bk.ru;https://2gis.kz/almaty/search/%D0%BA%D0%B0%D1%84%D0%B5/page/2/firm/9429940001071986/76.902776%2C43.237634
ELIXIR;+7‒747‒500‒03‒57;almaty;12-й микрорайон, 24;https://www.instagram.com/elixir_altynsarina/;https://api.whatsapp.com/send/?phone=77475000356&text=%D0%97%D0%B4%D1%80%D0%B0%D0%B2%D1%81%D1%82%D0%B2%D1%83%D0%B9%D1%82%D0%B5%21%0A%0A%D0%9F%D0%B8%D1%88%D1%83+%D0%B8%D0%B7+%D0%BF%D1%80%D0%B8%D0%BB%D0%BE%D0%B6%D0%B5%D0%BD%D0%B8%D1%8F+2%D0%93%D0%98%D0%A1.%0A%0A&type=phone_number&app_absent=0;;https://2gis.kz/almaty/search/%D0%BA%D0%B0%D1%84%D0%B5/page/2/firm/70000001057054984/76.86641%2C43.223291
ИЗУМИ;+7‒705‒304‒08‒01;almaty;улица Рыскулбекова, 22;https://www.instagram.com/izumi.kz/;https://api.whatsapp.com/send/?phone=77053040801&text=%D0%97%D0%B4%D1%80%D0%B0%D0%B2%D1%81%D1%82%D0%B2%D1%83%D0%B9%D1%82%D0%B5%21%0A%0A%D0%9F%D0%B8%D1%88%D1%83+%D0%B8%D0%B7+%D0%BF%D1%80%D0%B8%D0%BB%D0%BE%D0%B6%D0%B5%D0%BD%D0%B8%D1%8F+2%D0%93%D0%98%D0%A1.%0A%0A&type=phone_number&app_absent=0;izumikz2018@gmail.com;https://2gis.kz/almaty/search/%D0%BA%D0%B0%D1%84%D0%B5/page/3/firm/70000001029405784/76.878744%2C43.206149
TURAN;;almaty;улица Рабат, 18;;;;https://2gis.kz/almaty/search/%D0%BA%D0%B0%D1%84%D0%B5/page/3/firm/70000001035135116/76.839596%2C43.212018
МУЛАН;+7‒747‒757‒58‒87;almaty;микрорайон Алмагуль, 39;https://www.instagram.com/mulan_hogo_centr/;https://api.whatsapp.com/send/?phone=77479525277&text=%D0%97%D0%B4%D1%80%D0%B0%D0%B2%D1%81%D1%82%D0%B2%D1%83%D0%B9%D1%82%D0%B5%21%0A%0A%D0%9F%D0%B8%D1%88%D1%83+%D0%B8%D0%B7+%D0%BF%D1%80%D0%B8%D0%BB%D0%BE%D0%B6%D0%B5%D0%BD%D0%B8%D1%8F+2%D0%93%D0%98%D0%A1.%0A%0A&type=phone_number&app_absent=0;mulanhogo@mail.ru;https://2gis.kz/almaty/search/%D0%BA%D0%B0%D1%84%D0%B5/page/3/firm/70000001057240315/76.903713%2C43.204156
QR RESTOBAR;+7‒775‒416‒87‒50,+7‒701‒805‒11‒11;almaty;улица Каратоган, 3;https://www.instagram.com/qr_restobar/;https://api.whatsapp.com/send/?phone=77754168750&text=%D0%97%D0%B4%D1%80%D0%B0%D0%B2%D1%81%D1%82%D0%B2%D1%83%D0%B9%D1%82%D0%B5%21%0A%0A%D0%9F%D0%B8%D1%88%D1%83+%D0%B8%D0%B7+%D0%BF%D1%80%D0%B8%D0%BB%D0%BE%D0%B6%D0%B5%D0%BD%D0%B8%D1%8F+2%D0%93%D0%98%D0%A1.%0A%0A&type=phone_number&app_absent=0;;https://2gis.kz/almaty/search/%D0%BA%D0%B0%D1%84%D0%B5/page/3/firm/70000001052024319/76.825423%2C43.247302
МЯТА НА АЛТЫНСАРИНА;+7‒701‒735‒55‒88;almaty;12-й микрорайон, 24;https://www.instagram.com/myata_altynsarina/;;redalmaty@mail.ru;https://2gis.kz/almaty/search/%D0%BA%D0%B0%D1%84%D0%B5/page/3/firm/70000001034522943/76.86641%2C43.223291
ШАШЛЫЧНЫЙ ДВОР;+7‒707‒583‒90‒69;almaty;улица Шемякина, 274;;https://api.whatsapp.com/send/?phone=77075839069&text=%D0%97%D0%B4%D1%80%D0%B0%D0%B2%D1%81%D1%82%D0%B2%D1%83%D0%B9%D1%82%D0%B5%21%0A%0A%D0%9F%D0%B8%D1%88%D1%83+%D0%B8%D0%B7+%D0%BF%D1%80%D0%B8%D0%BB%D0%BE%D0%B6%D0%B5%D0%BD%D0%B8%D1%8F+2%D0%93%D0%98%D0%A1.%0A%0A&type=phone_number&app_absent=0;;https://2gis.kz/almaty/search/%D0%BA%D0%B0%D1%84%D0%B5/page/3/firm/70000001037156569/76.96708%2C43.31126
BEREKET;+7‒701‒557‒77‒76;almaty;микрорайон Самал-2, 98;https://www.instagram.com/bereket.almaty/;https://api.whatsapp.com/send/?phone=77015577776&text=%D0%97%D0%B4%D1%80%D0%B0%D0%B2%D1%81%D1%82%D0%B2%D1%83%D0%B9%D1%82%D0%B5%21%0A%0A%D0%9F%D0%B8%D1%88%D1%83+%D0%B8%D0%B7+%D0%BF%D1%80%D0%B8%D0%BB%D0%BE%D0%B6%D0%B5%D0%BD%D0%B8%D1%8F+2%D0%93%D0%98%D0%A1.%0A%0A&type=phone_number&app_absent=0;bereketkafekzalmaty@gmail.com;https://2gis.kz/almaty/search/%D0%BA%D0%B0%D1%84%D0%B5/page/3/firm/70000001026128849/76.953547%2C43.232694
BEER GARDEN;;almaty;улица Муратбаева, 195;https://www.instagram.com/beer_garden_almaty/;;beergardenpub.kz@gmail.com;https://2gis.kz/almaty/search/%D0%BA%D0%B0%D1%84%D0%B5/page/3/firm/70000001029883529/76.919253%2C43.247262
МЯТА НА ЖАНДОСОВА;+7‒705‒555‒46‒46;almaty;улица Умбетбаева, 183;https://www.instagram.com/myata_zhandosova/;https://api.whatsapp.com/send/?phone=77055554646&text=%D0%97%D0%B4%D1%80%D0%B0%D0%B2%D1%81%D1%82%D0%B2%D1%83%D0%B9%D1%82%D0%B5%21%0A%0A%D0%9F%D0%B8%D1%88%D1%83+%D0%B8%D0%B7+%D0%BF%D1%80%D0%B8%D0%BB%D0%BE%D0%B6%D0%B5%D0%BD%D0%B8%D1%8F+2%D0%93%D0%98%D0%A1.%0A%0A&type=phone_number&app_absent=0;;https://2gis.kz/almaty/search/%D0%BA%D0%B0%D1%84%D0%B5/page/3/firm/70000001028942630/76.89679%2C43.23108
HANIFA;+7‒775‒250‒86‒68,+7‒701‒130‒38‒38;almaty;проспект Райымбека, 176;https://www.instagram.com/hanifa_halal_cafe/;https://api.whatsapp.com/send/?phone=77011303838&text=%D0%97%D0%B4%D1%80%D0%B0%D0%B2%D1%81%D1%82%D0%B2%D1%83%D0%B9%D1%82%D0%B5%21%0A%0A%D0%9F%D0%B8%D1%88%D1%83+%D0%B8%D0%B7+%D0%BF%D1%80%D0%B8%D0%BB%D0%BE%D0%B6%D0%B5%D0%BD%D0%B8%D1%8F+2%D0%93%D0%98%D0%A1.%0A%0A&type=phone_number&app_absent=0;hanifa_halal_cafe@mail.ru;https://2gis.kz/almaty/search/%D0%BA%D0%B0%D1%84%D0%B5/page/3/firm/70000001057210706/76.918482%2C43.267527
МАЛЕНЬКИЙ ПРИНЦ;+7‒778‒057‒27‒57;almaty;улица Толе би, 265;https://www.instagram.com/malenkiy_princ_almaty/;https://api.whatsapp.com/send/?phone=77780572757&text=%D0%97%D0%B4%D1%80%D0%B0%D0%B2%D1%81%D1%82%D0%B2%D1%83%D0%B9%D1%82%D0%B5%21%0A%0A%D0%9F%D0%B8%D1%88%D1%83+%D0%B8%D0%B7+%D0%BF%D1%80%D0%B8%D0%BB%D0%BE%D0%B6%D0%B5%D0%BD%D0%B8%D1%8F+2%D0%93%D0%98%D0%A1.%0A%0A&type=phone_number&app_absent=0;;https://2gis.kz/almaty/search/%D0%BA%D0%B0%D1%84%D0%B5/page/3/firm/70000001044444614/76.871086%2C43.249055
MASISSO;+7‒777‒206‒01‒01,+7 (727) 273‒24‒57;almaty;проспект Назарбаева, 57;https://www.instagram.com/masisso_korean_bbq/;https://api.whatsapp.com/send/?phone=77772060101&text=%D0%97%D0%B4%D1%80%D0%B0%D0%B2%D1%81%D1%82%D0%B2%D1%83%D0%B9%D1%82%D0%B5%21%0A%0A%D0%9F%D0%B8%D1%88%D1%83+%D0%B8%D0%B7+%D0%BF%D1%80%D0%B8%D0%BB%D0%BE%D0%B6%D0%B5%D0%BD%D0%B8%D1%8F+2%D0%93%D0%98%D0%A1.%0A%0A&type=phone_number&app_absent=0;masisso_na_furmanova@mail.ru;https://2gis.kz/almaty/search/%D0%BA%D0%B0%D1%84%D0%B5/page/3/firm/9429940001695220/76.945203%2C43.264324
ЛАГМАН TOWN;+7‒700‒487‒13‒63;almaty;улица Жайдарман, 42;https://www.instagram.com/lagman_town/;https://api.whatsapp.com/send/?phone=77004871363&text=%D0%97%D0%B4%D1%80%D0%B0%D0%B2%D1%81%D1%82%D0%B2%D1%83%D0%B9%D1%82%D0%B5%21%0A%0A%D0%9F%D0%B8%D1%88%D1%83+%D0%B8%D0%B7+%D0%BF%D1%80%D0%B8%D0%BB%D0%BE%D0%B6%D0%B5%D0%BD%D0%B8%D1%8F+2%D0%93%D0%98%D0%A1.%0A%0A&type=phone_number&app_absent=0;lagmantown@gmail.com;https://2gis.kz/almaty/search/%D0%BA%D0%B0%D1%84%D0%B5/page/4/firm/70000001032522970/76.827719%2C43.225334
ROTANA GRILL LOUNGE;+7‒747‒666‒97‒92;almaty;проспект Сейфуллина, 410;https://www.instagram.com/rotana.grill.lounge/;https://api.whatsapp.com/send/?phone=77476669792&text=%D0%97%D0%B4%D1%80%D0%B0%D0%B2%D1%81%D1%82%D0%B2%D1%83%D0%B9%D1%82%D0%B5%21%0A%0A%D0%9F%D0%B8%D1%88%D1%83+%D0%B8%D0%B7+%D0%BF%D1%80%D0%B8%D0%BB%D0%BE%D0%B6%D0%B5%D0%BD%D0%B8%D1%8F+2%D0%93%D0%98%D0%A1.%0A%0A&type=phone_number&app_absent=0;rotana2022@mail.ru;https://2gis.kz/almaty/search/%D0%BA%D0%B0%D1%84%D0%B5/page/4/firm/70000001043707008/76.931657%2C43.265608
SAF SHAIKHANA;+7‒701‒012‒50‒60,+7‒747‒353‒83‒13;almaty;улица Жаркентская, 25;https://www.instagram.com/saf.almaty/;https://api.whatsapp.com/send/?phone=77473538313&text=%D0%97%D0%B4%D1%80%D0%B0%D0%B2%D1%81%D1%82%D0%B2%D1%83%D0%B9%D1%82%D0%B5%21%0A%0A%D0%9F%D0%B8%D1%88%D1%83+%D0%B8%D0%B7+%D0%BF%D1%80%D0%B8%D0%BB%D0%BE%D0%B6%D0%B5%D0%BD%D0%B8%D1%8F+2%D0%93%D0%98%D0%A1.%0A%0A&type=phone_number&app_absent=0;;https://2gis.kz/almaty/search/%D0%BA%D0%B0%D1%84%D0%B5/page/4/firm/70000001052939856/76.950128%2C43.21885
ГЛАМУР;+7‒702‒168‒31‒23,+7‒707‒568‒58‒34;almaty;улица Хмельницкого, 41;https://www.instagram.com/glamur_almaty_/;https://api.whatsapp.com/send/?phone=77021683123&text=%D0%97%D0%B4%D1%80%D0%B0%D0%B2%D1%81%D1%82%D0%B2%D1%83%D0%B9%D1%82%D0%B5%21%0A%0A%D0%9F%D0%B8%D1%88%D1%83+%D0%B8%D0%B7+%D0%BF%D1%80%D0%B8%D0%BB%D0%BE%D0%B6%D0%B5%D0%BD%D0%B8%D1%8F+2%D0%93%D0%98%D0%A1.%0A%0A&type=phone_number&app_absent=0;;https://2gis.kz/almaty/search/%D0%BA%D0%B0%D1%84%D0%B5/page/4/firm/70000001059273785/76.968762%2C43.321596
PRESSO;+7‒701‒539‒78‒58;almaty;улица Толе би, 50-54;https://www.instagram.com/by_presso/;https://api.whatsapp.com/send/?phone=77015397858&text=%D0%97%D0%B4%D1%80%D0%B0%D0%B2%D1%81%D1%82%D0%B2%D1%83%D0%B9%D1%82%D0%B5%21%0A%0A%D0%9F%D0%B8%D1%88%D1%83+%D0%B8%D0%B7+%D0%BF%D1%80%D0%B8%D0%BB%D0%BE%D0%B6%D0%B5%D0%BD%D0%B8%D1%8F+2%D0%93%D0%98%D0%A1.%0A%0A&type=phone_number&app_absent=0;www.presso.kz,anna.kim@presso.kz;https://2gis.kz/almaty/search/%D0%BA%D0%B0%D1%84%D0%B5/page/4/firm/9429940001695197/76.949516%2C43.254978
DREAMS ALMATY;+7‒705‒140‒00‒10,+7‒747‒117‒47‒83;almaty;улица Каирбекова, 35а;https://www.instagram.com/hookah_dreams_almaty/;https://api.whatsapp.com/send/?phone=77471174783&text=%D0%97%D0%B4%D1%80%D0%B0%D0%B2%D1%81%D1%82%D0%B2%D1%83%D0%B9%D1%82%D0%B5%21%0A%0A%D0%9F%D0%B8%D1%88%D1%83+%D0%B8%D0%B7+%D0%BF%D1%80%D0%B8%D0%BB%D0%BE%D0%B6%D0%B5%D0%BD%D0%B8%D1%8F+2%D0%93%D0%98%D0%A1.%0A%0A&type=phone_number&app_absent=0;hd_almaty@bk.ru;https://2gis.kz/almaty/search/%D0%BA%D0%B0%D1%84%D0%B5/page/4/firm/70000001031629360/76.96112%2C43.260461
SYDYK;+7 (727) 229‒22‒22,+7‒700‒220‒36‒23;almaty;улица Желтоксан, 155;https://www.instagram.com/sydyk_camel_milk/;https://api.whatsapp.com/send/?phone=77003381110&text=%D0%97%D0%B4%D1%80%D0%B0%D0%B2%D1%81%D1%82%D0%B2%D1%83%D0%B9%D1%82%D0%B5%21%0A%0A%D0%9F%D0%B8%D1%88%D1%83+%D0%B8%D0%B7+%D0%BF%D1%80%D0%B8%D0%BB%D0%BE%D0%B6%D0%B5%D0%BD%D0%B8%D1%8F+2%D0%93%D0%98%D0%A1.%0A%0A&type=phone_number&app_absent=0;;https://2gis.kz/almaty/search/%D0%BA%D0%B0%D1%84%D0%B5/page/4/firm/70000001033784044/76.940768%2C43.244535
РЕГИСТАН;+7‒771‒780‒07‒80,+7‒707‒207‒00‒01;almaty;улица Майлина, 210;https://www.instagram.com/registan.almaty/;https://api.whatsapp.com/send/?phone=77072070001&text=%D0%97%D0%B4%D1%80%D0%B0%D0%B2%D1%81%D1%82%D0%B2%D1%83%D0%B9%D1%82%D0%B5%21%0A%0A%D0%9F%D0%B8%D1%88%D1%83+%D0%B8%D0%B7+%D0%BF%D1%80%D0%B8%D0%BB%D0%BE%D0%B6%D0%B5%D0%BD%D0%B8%D1%8F+2%D0%93%D0%98%D0%A1.%0A%0A&type=phone_number&app_absent=0;;https://2gis.kz/almaty/search/%D0%BA%D0%B0%D1%84%D0%B5/page/4/firm/70000001063283389/76.98323%2C43.338256
BUBBLEGUM;+7‒778‒747‒45‒45,+7 (727) 313‒23‒39;almaty;улица Шевченко, 99;https://www.instagram.com/bubblegum_cafe/;https://api.whatsapp.com/send/?phone=77787474545&text=%D0%97%D0%B4%D1%80%D0%B0%D0%B2%D1%81%D1%82%D0%B2%D1%83%D0%B9%D1%82%D0%B5%21%0A%0A%D0%9F%D0%B8%D1%88%D1%83+%D0%B8%D0%B7+%D0%BF%D1%80%D0%B8%D0%BB%D0%BE%D0%B6%D0%B5%D0%BD%D0%B8%D1%8F+2%D0%93%D0%98%D0%A1.%0A%0A&type=phone_number&app_absent=0;cafe.bubblegum@gmail.com;https://2gis.kz/almaty/search/%D0%BA%D0%B0%D1%84%D0%B5/page/4/firm/70000001033857759/76.927372%2C43.245229
GARDIZI;+7‒747‒111‒97‒27;almaty;микрорайон Кокжиек, 53/2;https://www.instagram.com/gardizi.kz/;https://api.whatsapp.com/send/?phone=77471119727&text=%D0%97%D0%B4%D1%80%D0%B0%D0%B2%D1%81%D1%82%D0%B2%D1%83%D0%B9%D1%82%D0%B5%21%0A%0A%D0%9F%D0%B8%D1%88%D1%83+%D0%B8%D0%B7+%D0%BF%D1%80%D0%B8%D0%BB%D0%BE%D0%B6%D0%B5%D0%BD%D0%B8%D1%8F+2%D0%93%D0%98%D0%A1.%0A%0A&type=phone_number&app_absent=0;;https://2gis.kz/almaty/search/%D0%BA%D0%B0%D1%84%D0%B5/page/4/firm/70000001036422762/76.922629%2C43.354757
QONAQ;+7‒701‒199‒17‒77;almaty;улица Зеина Шашкина, 5в;https://www.instagram.com/qonaq_kafe/;https://api.whatsapp.com/send/?phone=77011991777&text=%D0%97%D0%B4%D1%80%D0%B0%D0%B2%D1%81%D1%82%D0%B2%D1%83%D0%B9%D1%82%D0%B5%21%0A%0A%D0%9F%D0%B8%D1%88%D1%83+%D0%B8%D0%B7+%D0%BF%D1%80%D0%B8%D0%BB%D0%BE%D0%B6%D0%B5%D0%BD%D0%B8%D1%8F+2%D0%93%D0%98%D0%A1.%0A%0A&type=phone_number&app_absent=0;;https://2gis.kz/almaty/search/%D0%BA%D0%B0%D1%84%D0%B5/page/4/firm/70000001063347652/76.930126%2C43.224039
SARANCHA;+7‒705‒441‒37‒04,+7‒706‒651‒55‒29;almaty;улица Масанчи, 23;https://www.instagram.com/sarancha_almaty/;https://api.whatsapp.com/send/?phone=77066515529&text=%D0%97%D0%B4%D1%80%D0%B0%D0%B2%D1%81%D1%82%D0%B2%D1%83%D0%B9%D1%82%D0%B5%21%0A%0A%D0%9F%D0%B8%D1%88%D1%83+%D0%B8%D0%B7+%D0%BF%D1%80%D0%B8%D0%BB%D0%BE%D0%B6%D0%B5%D0%BD%D0%B8%D1%8F+2%D0%93%D0%98%D0%A1.%0A%0A&type=phone_number&app_absent=0;sarancha0108@gmail.com;https://2gis.kz/almaty/search/%D0%BA%D0%B0%D1%84%D0%B5/page/4/firm/70000001063164769/76.928014%2C43.260615
GARDIZI;+7‒747‒111‒97‒27;almaty;микрорайон Кокжиек, 53/2;https://www.instagram.com/gardizi.kz/;https://api.whatsapp.com/send/?phone=77471119727&text=%D0%97%D0%B4%D1%80%D0%B0%D0%B2%D1%81%D1%82%D0%B2%D1%83%D0%B9%D1%82%D0%B5%21%0A%0A%D0%9F%D0%B8%D1%88%D1%83+%D0%B8%D0%B7+%D0%BF%D1%80%D0%B8%D0%BB%D0%BE%D0%B6%D0%B5%D0%BD%D0%B8%D1%8F+2%D0%93%D0%98%D0%A1.%0A%0A&type=phone_number&app_absent=0;;https://2gis.kz/almaty/search/%D0%BA%D0%B0%D1%84%D0%B5/page/5/firm/70000001036422762/76.922629%2C43.354757
РЕГИСТАН;+7‒771‒780‒07‒80,+7‒707‒207‒00‒01;almaty;улица Майлина, 210;https://www.instagram.com/registan.almaty/;https://api.whatsapp.com/send/?phone=77072070001&text=%D0%97%D0%B4%D1%80%D0%B0%D0%B2%D1%81%D1%82%D0%B2%D1%83%D0%B9%D1%82%D0%B5%21%0A%0A%D0%9F%D0%B8%D1%88%D1%83+%D0%B8%D0%B7+%D0%BF%D1%80%D0%B8%D0%BB%D0%BE%D0%B6%D0%B5%D0%BD%D0%B8%D1%8F+2%D0%93%D0%98%D0%A1.%0A%0A&type=phone_number&app_absent=0;;https://2gis.kz/almaty/search/%D0%BA%D0%B0%D1%84%D0%B5/page/5/firm/70000001063283389/76.98323%2C43.338256
SYDYK;+7 (727) 229‒22‒22,+7‒700‒220‒36‒23;almaty;улица Желтоксан, 155;https://www.instagram.com/sydyk_camel_milk/;https://api.whatsapp.com/send/?phone=77003381110&text=%D0%97%D0%B4%D1%80%D0%B0%D0%B2%D1%81%D1%82%D0%B2%D1%83%D0%B9%D1%82%D0%B5%21%0A%0A%D0%9F%D0%B8%D1%88%D1%83+%D0%B8%D0%B7+%D0%BF%D1%80%D0%B8%D0%BB%D0%BE%D0%B6%D0%B5%D0%BD%D0%B8%D1%8F+2%D0%93%D0%98%D0%A1.%0A%0A&type=phone_number&app_absent=0;;https://2gis.kz/almaty/search/%D0%BA%D0%B0%D1%84%D0%B5/page/5/firm/70000001033784044/76.940768%2C43.244535
THE GREEN STATION;+7‒777‒717‒09‒99;almaty;проспект Назарбаева, 139;https://www.instagram.com/greenstation_almaty/;https://api.whatsapp.com/send/?phone=77777170999&text=%D0%97%D0%B4%D1%80%D0%B0%D0%B2%D1%81%D1%82%D0%B2%D1%83%D0%B9%D1%82%D0%B5%21%0A%0A%D0%9F%D0%B8%D1%88%D1%83+%D0%B8%D0%B7+%D0%BF%D1%80%D0%B8%D0%BB%D0%BE%D0%B6%D0%B5%D0%BD%D0%B8%D1%8F+2%D0%93%D0%98%D0%A1.%0A%0A&type=phone_number&app_absent=0;thegreenstation2020@gmail.com;https://2gis.kz/almaty/search/%D0%BA%D0%B0%D1%84%D0%B5/page/5/firm/70000001055563812/76.946991%2C43.250437
DO RE MI;+7‒747‒526‒02‒32,+7‒776‒534‒99‒09;almaty;улица Муканова, 130;https://www.instagram.com/karaoke_doremi/;https://api.whatsapp.com/send/?phone=77475260232&text=%D0%97%D0%B4%D1%80%D0%B0%D0%B2%D1%81%D1%82%D0%B2%D1%83%D0%B9%D1%82%D0%B5%21%0A%0A%D0%9F%D0%B8%D1%88%D1%83+%D0%B8%D0%B7+%D0%BF%D1%80%D0%B8%D0%BB%D0%BE%D0%B6%D0%B5%D0%BD%D0%B8%D1%8F+2%D0%93%D0%98%D0%A1.%0A%0A&type=phone_number&app_absent=0;gmctavish@inbox.ru;https://2gis.kz/almaty/search/%D0%BA%D0%B0%D1%84%D0%B5/page/5/firm/70000001033793422/76.914978%2C43.253921
SAZANCHIK;+7‒747‒866‒65‒78;almaty;улица Отемисулы, 205;https://www.instagram.com/sazanshik_ff/;https://api.whatsapp.com/send/?phone=77478666578&text=%D0%97%D0%B4%D1%80%D0%B0%D0%B2%D1%81%D1%82%D0%B2%D1%83%D0%B9%D1%82%D0%B5%21%0A%0A%D0%9F%D0%B8%D1%88%D1%83+%D0%B8%D0%B7+%D0%BF%D1%80%D0%B8%D0%BB%D0%BE%D0%B6%D0%B5%D0%BD%D0%B8%D1%8F+2%D0%93%D0%98%D0%A1.%0A%0A&type=phone_number&app_absent=0;;https://2gis.kz/almaty/search/%D0%BA%D0%B0%D1%84%D0%B5/page/5/firm/70000001064866930/76.865292%2C43.309692
ШИШКА EDITION;+7‒702‒666‒69‒33;almaty;улица Кажымукана, 49;https://www.instagram.com/shishka.edition/;https://api.whatsapp.com/send/?phone=77026666933&text=%D0%97%D0%B4%D1%80%D0%B0%D0%B2%D1%81%D1%82%D0%B2%D1%83%D0%B9%D1%82%D0%B5%21%0A%0A%D0%9F%D0%B8%D1%88%D1%83+%D0%B8%D0%B7+%D0%BF%D1%80%D0%B8%D0%BB%D0%BE%D0%B6%D0%B5%D0%BD%D0%B8%D1%8F+2%D0%93%D0%98%D0%A1.%0A%0A&type=phone_number&app_absent=0;shishka.edition@mail.ru;https://2gis.kz/almaty/search/%D0%BA%D0%B0%D1%84%D0%B5/page/5/firm/70000001044148861/76.954542%2C43.225724
GINGER SUSHI;+7‒702‒221‒88‒80,+7‒707‒740‒40‒09;almaty;улица Жандарбекова, 128;https://www.instagram.com/ginger_sushi_/;https://api.whatsapp.com/send/?phone=77022218880&text=%D0%97%D0%B4%D1%80%D0%B0%D0%B2%D1%81%D1%82%D0%B2%D1%83%D0%B9%D1%82%D0%B5%21%0A%0A%D0%9F%D0%B8%D1%88%D1%83+%D0%B8%D0%B7+%D0%BF%D1%80%D0%B8%D0%BB%D0%BE%D0%B6%D0%B5%D0%BD%D0%B8%D1%8F+2%D0%93%D0%98%D0%A1.%0A%0A&type=phone_number&app_absent=0;scouser-88@mail.ru;https://2gis.kz/almaty/search/%D0%BA%D0%B0%D1%84%D0%B5/page/5/firm/70000001031931340/76.89858%2C43.237782
КАФЕ ПЛЮС;+7‒777‒417‒28‒58,+7 (727) 390‒16‒16;almaty;улица Желтоксан, 144;https://www.instagram.com/kafeplus_/;https://api.whatsapp.com/send/?phone=77775324455&text=%D0%97%D0%B4%D1%80%D0%B0%D0%B2%D1%81%D1%82%D0%B2%D1%83%D0%B9%D1%82%D0%B5%21%0A%0A%D0%9F%D0%B8%D1%88%D1%83+%D0%B8%D0%B7+%D0%BF%D1%80%D0%B8%D0%BB%D0%BE%D0%B6%D0%B5%D0%BD%D0%B8%D1%8F+2%D0%93%D0%98%D0%A1.%0A%0A&type=phone_number&app_absent=0;aptekaplyussmm@yandex.kz;https://2gis.kz/almaty/search/%D0%BA%D0%B0%D1%84%D0%B5/page/5/firm/70000001037932499/76.940702%2C43.248978
TYTIN;+7‒707‒505‒35‒21;almaty;улица Ислама Каримова, 60;https://www.instagram.com/tytin_lounge_bar/;https://api.whatsapp.com/send/?phone=77075053521&text=%D0%97%D0%B4%D1%80%D0%B0%D0%B2%D1%81%D1%82%D0%B2%D1%83%D0%B9%D1%82%D0%B5%21%0A%0A%D0%9F%D0%B8%D1%88%D1%83+%D0%B8%D0%B7+%D0%BF%D1%80%D0%B8%D0%BB%D0%BE%D0%B6%D0%B5%D0%BD%D0%B8%D1%8F+2%D0%93%D0%98%D0%A1.%0A%0A&type=phone_number&app_absent=0;;https://2gis.kz/almaty/search/%D0%BA%D0%B0%D1%84%D0%B5/page/5/firm/70000001030229880/76.883337%2C43.249641
